Name,Address,Borough,Surface Type,Permit Status,Number of Courts,Dates Open,Hours Open,Description/Local Tips,Latitude,Longitude,Google Maps Embed Code
96th St Clay,"Hudson River Greenway, New York, NY 10025",Manhattan,Clay,Required & Enforced,10,April ~ November (Thanksgiving Day),7:00am ~ 3:00pm/8:00pm (varies by month),"
* No Permit? A $15 day pass is available at courts. (Credit card/virtual wallet preferred, cash accepted).
Amenities:
* Fountains, RCTA-provided water (during playing hours).
* Portable restrooms nearby.
* Free parking lot (accessible from Henry Hudson Pkwy). Sign up sheet becomes available at 6 am (Daily)",40.79705873,-73.97694289,"<iframe src=""https://www.google.com/maps/embed?pb=!1m18!1m12!1m3!1d3020.4121120063924!2d-73.97691069999999!3d40.7969369!2m3!1f0!2f0!3f0!3m2!1i1024!2i768!4f13.1!3m3!1m2!1s0x89c2f6295c295bc7%3A0xe608b9fd987fbc3b!2s96th%20Street%20Clay%20Tennis%20Courts!5e0!3m2!1sen!2s!4v1753836665665!5m2!1sen!2s"" width=""600"" height=""450"" style=""border:0;"" allowfullscreen="""" loading=""lazy"" referrerpolicy=""no-referrer-when-downgrade""></iframe>"
Central Park Tennis Center,"1 West 96th Street & Central Park West, New York, NY 10025.",Manhattan,Har-Tru,Required & Enforced,30,April ~ November (Thanksgiving Day),7:00am ~ 2:00pm/8:00pm (varies by month),"Courts: 30 courts total (26 Har-Tru, 4 Hard). Well-kept with good baseline spacing.
Season & Hours: April - November (until Thanksgiving Day). Hours vary by month (typically 7:00 AM - 2:00 PM / 8:00 PM).
Daily Conditions Hotline: Call (212) 280-0206 for daily court conditions (closed during rain) and availability.
Permits & Sign-Ups:
* NYC Parks Department tennis permit required.
* Sign-ups: Sheets come out daily at 6:30 AM at the reception near the balcony.
* Strict Rules: Both players must be signed up 15 mins before the hour. For doubles, all four players must sign up 15 mins before the first hour for 2 hours of play. Late players lose their court.
* Minimum two players on court. No practicing serves alone.
* Wait for the hourly bell before entering.
Amenities: Water fountains and restroom facilities nearby. As always, be respectful, communicate clearly with other players, and if others are waiting, please limit play to the appropriate time and vacate promptly.",40.79026065,-73.96219475,"<iframe src=""https://www.google.com/maps/embed?pb=!1m14!1m8!1m3!1d6041.46569704898!2d-73.962066!3d40.789887!3m2!1i1024!2i768!4f13.1!3m3!1m2!1s0x89c25988f989506d%3A0x6d87771a059466ba!2sCentral%20Park%20Tennis%20Center!5e0!3m2!1sen!2sus!4v1753843777019!5m2!1sen!2sus"" width=""600"" height=""450"" style=""border:0;"" allowfullscreen="""" loading=""lazy"" referrerpolicy=""no-referrer-when-downgrade""></iframe>"
Fort Washington ,"Hudson River Greenway, New York, NY 10032",Manhattan,Hard,"Required, but Rarely Checked",10,All Year,8:00am ~ 4:00pm/7:00pm (varies by month),"Often walk-on play with minimal to no wait. As always, be respectful, communicate clearly with other players, and if others are waiting, please limit play to the appropriate time and vacate promptly.",40.84804731,-73.94627393,"<iframe src=""https://www.google.com/maps/embed?pb=!1m18!1m12!1m3!1d1186.2273706892338!2d-73.94673355914189!3d40.84731684491626!2m3!1f0!2f0!3f0!3m2!1i1024!2i768!4f13.1!3m3!1m2!1s0x89c2f6980cc6feaf%3A0x5531ff9170b553db!2sFort%20Washington%20Park%20Tennis%20Courts!5e0!3m2!1sen!2s!4v1753845109925!5m2!1sen!2s"" width=""600"" height=""450"" style=""border:0;"" allowfullscreen="""" loading=""lazy"" referrerpolicy=""no-referrer-when-downgrade""></iframe>"
Frederic Johnson,"W. 151st St &, Adam Clayton Powell Jr Blvd, New York, NY 10039",Manhattan,Hard,Not Required,8,All Year,8 am to 8 pm (Floodlights),"First-come, first-served. Add or check wait times here. When at the court, scan the QR for quick access — your update helps others, and theirs helps you. As always, be respectful, communicate clearly with other players, and if others are waiting, please limit play to the appropriate time and vacate promptly.",40.82486852,-73.93575638,"<iframe src=""https://www.google.com/maps/embed?pb=!1m18!1m12!1m3!1d870.0255876568546!2d-73.93657569424073!3d40.82525454846296!2m3!1f0!2f0!3f0!3m2!1i1024!2i768!4f13.1!3m3!1m2!1s0x89c2f67f97cdc281%3A0x37d0dc255743f071!2sFrederick%20Johnson%20Tennis%20Courts!5e0!3m2!1sen!2s!4v1753885702463!5m2!1sen!2s"" width=""600"" height=""450"" style=""border:0;"" allowfullscreen="""" loading=""lazy"" referrerpolicy=""no-referrer-when-downgrade""></iframe>"
Howard Bennett,"32 W 136th St, New York, NY 10037",Manhattan,Hard,"Required, but Rarely Checked",2,All Year, 8:00 AM – 5:00 PM/8:00 PM (varies by month),"Often walk-on play with minimal to no wait. As always, be respectful, communicate clearly with other players, and if others are waiting, please limit play to the appropriate time and vacate promptly.",40.81374848,-73.93858378,"<iframe src=""https://www.google.com/maps/embed?pb=!1m18!1m12!1m3!1d451.45271194240325!2d-73.9384057292329!3d40.813897800617774!2m3!1f0!2f0!3f0!3m2!1i1024!2i768!4f13.1!3m3!1m2!1s0x89c2f7274c1bb3dd%3A0xc521530e494e2bbe!2sTennis%20courts!5e1!3m2!1sen!2s!4v1753887867977!5m2!1sen!2s"" width=""600"" height=""450"" style=""border:0;"" allowfullscreen="""" loading=""lazy"" referrerpolicy=""no-referrer-when-downgrade""></iframe>"
Inwood Hill Tennis Courts,"Seaman Ave &, Isham St, New York, NY 10034",Manhattan,Hard,"Required, but Rarely Checked",9,All Year,8:00am ~ 8:00pm ,,40.87014753,-73.92211639,"<iframe src=""https://www.google.com/maps/embed?pb=!1m14!1m8!1m3!1d4378.810778036918!2d-73.92256795895491!3d40.871395680173364!3m2!1i1024!2i768!4f13.1!3m3!1m2!1s0x89c2f3f0d241cca7%3A0xbb3bf9268f0ba221!2sInwood%20Hill%20Park%20Tennis%20Courts!5e1!3m2!1sen!2s!4v1753887917654!5m2!1sen!2s"" width=""600"" height=""450"" style=""border:0;"" allowfullscreen="""" loading=""lazy"" referrerpolicy=""no-referrer-when-downgrade""></iframe>"
Riverside Park Tennis Courts," W 119th St, New York, NY 10025",Manhattan,Hard,Required & Enforced,10,All Year, 7:00 AM – 4:00 PM/8:00 PM (varies by month),"Sign-Ups:

Sheet posted around 7:00 AM.

Strategy: Arrive early to guarantee your court time.

Reservations:

Available for 2 of 10 courts via the Park Organization website. As all reservations through the park organization its 15 dollars per hour",40.8120908,-73.96528444,"<iframe src=""https://www.google.com/maps/embed?pb=!1m18!1m12!1m3!1d3019.7280711100702!2d-73.96530589999999!3d40.81196899999999!2m3!1f0!2f0!3f0!3m2!1i1024!2i768!4f13.1!3m3!1m2!1s0x89c2f63f540ce893%3A0x859d23c027f737cb!2sRiverside%20Park%20Tennis%20Courts!5e1!3m2!1sen!2s!4v1753890131720!5m2!1sen!2s"" width=""600"" height=""450"" style=""border:0;"" allowfullscreen="""" loading=""lazy"" referrerpolicy=""no-referrer-when-downgrade""></iframe>"
Sutton East Tennis Courts,"488 E 60th St, New York, NY 10022",,Clay,Required & Enforced,8,All Year, 6:00am ~ 11:00pm,"8 indoor red clay courts.                                                                                                                      Access:
* In Season (April-Nov): Open to NYC Parks Permit holders.
* Off-Season (Dec-Mar): Pay-to-play for non-members (Expensive).
Sign-Ups:
* Courts open for play at 6:00 AM.
* Recommended to arrive around 5:30 AM to guarantee ideal court time. You can sign up before 6 AM.
Amenities: Pro shop, restrooms, and changing rooms available.",40.75915283,-73.95987118,"<iframe src=""https://www.google.com/maps/embed?pb=!1m18!1m12!1m3!1d3022.1268761568394!2d-73.9600643!3d40.75923409999999!2m3!1f0!2f0!3f0!3m2!1i1024!2i768!4f13.1!3m3!1m2!1s0x89c258e7bd524377%3A0x26a1758d4ef7d3b2!2sSutton%20East%20Tennis%20Club!5e1!3m2!1sen!2s!4v1753902008608!5m2!1sen!2s"" width=""600"" height=""450"" style=""border:0;"" allowfullscreen="""" loading=""lazy"" referrerpolicy=""no-referrer-when-downgrade""></iframe>"
Washington Market Tennis Court," Washington Market Park, Chambers St & Tribeca Bridge, New York, NY 10013",Manhattan,Hard,Required & Enforced,1,April – November (Thanksgiving Day),6:00am - 11 pm (Floodlights),"Sign-Up: Arrive around 5:45 AM to secure your ideal time on the sign-up sheet which will be posted right outside the entrance. Code pad on entrance door. Once signed up, code to enter the courts will be shared with you, code changes constantly. 
Amenities: Benches, umpire's chair",40.71737656,-74.01228939,"<iframe src=""https://www.google.com/maps/embed?pb=!1m18!1m12!1m3!1d3024.037934630371!2d-74.0122572!3d40.7171814!2m3!1f0!2f0!3f0!3m2!1i1024!2i768!4f13.1!3m3!1m2!1s0x89c25a1e80616f7b%3A0xfba1af686a60bbf5!2sWashington%20Market%20Park%20Tennis%20Court!5e1!3m2!1sen!2s!4v1753901988226!5m2!1sen!2s"" width=""600"" height=""450"" style=""border:0;"" allowfullscreen="""" loading=""lazy"" referrerpolicy=""no-referrer-when-downgrade""></iframe>"
Brian Watkins Tennis Courts,"FDR Dr, New York, NY 10002, United States",Manhattan,Hard,Not Required,12,All Year,8:00 AM til dusk,"First-come, first-served. Add or check wait times here. When at the court, scan the QR for quick access — your update helps others, and theirs helps you. *Find your spot: Speak with players waiting, or add your racket to the fence line (common during peak times).
Court Time Limits:
* Singles: 1 hour.
* Doubles (4 players): 2 hours.
Etiquette: Please be respectful, communicate openly, and track your time.
Location Note: Accessible via Delancey St pedestrian bridge between Delancey and Baruch. Walk all the way down to the river from there and you’ll find the pedestrian bridge which will help you cross the highway and reach the courts.
Amenities: Water fountain near mini soccer field, just south of courts.",40.71550444,73.97548427,"<iframe src=""https://www.google.com/maps/embed?pb=!1m18!1m12!1m3!1d3024.1203885827304!2d-73.975495!3d40.7153662!2m3!1f0!2f0!3f0!3m2!1i1024!2i768!4f13.1!3m3!1m2!1s0x89c2597d937406cb%3A0xa8a5ded166e7fdce!2sBrian%20Watkins%20Tennis%20Center!5e1!3m2!1sen!2s!4v1753904716683!5m2!1sen!2s"" width=""600"" height=""450"" style=""border:0;"" allowfullscreen="""" loading=""lazy"" referrerpolicy=""no-referrer-when-downgrade""></iframe>"
Hudson River Park Tennis Courts,"92 Hudson River Greenway, New York, NY 10014",Manhattan ,Hard,Not Required,3 (2 Doubles 1 Singles),All Year,6 AM - 1 AM (Floodlights),"First-come, first-served. Add or check wait times here. When at the court, scan the QR for quick access — your update helps others, and theirs helps you.
Wait Times :
* Very busy: Early weekday mornings, weekday afternoons (after work), and all day on weekends.
* More available: During weekday work hours in summer.
* Expect a wait time.
Amenities:
* Water fountains (southwest corner of singles court; off in winter).
* Restrooms inside Pier 40 (short walk north).
",40.72744626,-74.01134816,"<iframe src=""https://www.google.com/maps/embed?pb=!1m18!1m12!1m3!1d3023.580839769446!2d-74.0113267!3d40.72724300000001!2m3!1f0!2f0!3f0!3m2!1i1024!2i768!4f13.1!3m3!1m2!1s0x89c259f3cc639b0f%3A0x121147d22edb68e2!2sHudson%20River%20Park%20Tennis%20Courts!5e1!3m2!1sen!2s!4v1753905229657!5m2!1sen!2s"" width=""600"" height=""450"" style=""border:0;"" allowfullscreen="""" loading=""lazy"" referrerpolicy=""no-referrer-when-downgrade""></iframe>"
John Jay Park Tennis Courts," FDR Dr, New York, NY 10021",Manhattan,Hard,Not Required,1,All Year,7 am to 10 pm ,"No fence around court — be ready to chase down balls, even your winners.
One of the few Free to Play courts in Manhattan, and the only one on the Upper East Side.
Water fountains and restrooms are nearby.

As Always, be respectful, communicate clearly, and if others are waiting, please finish on time.",40.77214648,-73.94961907,"<iframe src=""https://www.google.com/maps/embed?pb=!1m14!1m8!1m3!1d48351.06806162828!2d-73.9712484!3d40.7633058!3m2!1i1024!2i768!4f13.1!3m3!1m2!1s0x89c258c793a40e11%3A0xac96fe78f1d66e55!2sJohn%20Jay%20Park!5e1!3m2!1sen!2s!4v1753921549953!5m2!1sen!2s"" width=""600"" height=""450"" style=""border:0;"" allowfullscreen="""" loading=""lazy"" referrerpolicy=""no-referrer-when-downgrade""></iframe>"
Pier 42," E River Greenway, New York, NY 10002",Manhattan,Hard,Not Required,4,All Year,7 am til dusk,"This court operates on a first-come, first-served system.
When you arrive, check in with waiting players to find your place in line. This court uses a racket lineup system — rackets are placed along the fence near the entrance, with the racket closest to the gate playing next. Add yours to the end and wait your turn.
Play is limited to 1 hour for singles and 2 hours for doubles (4 players).
As Always, be respectful, communicate clearly, and if others are waiting, please finish on time.


You can check or add live wait times on this page, or scan the QR code on-site for quick access.
Your update helps others, and theirs helps you — the more we share, the better it works for everyone. 

",40.71004575,-73.98294707,"<iframe src=""https://www.google.com/maps/embed?pb=!1m18!1m12!1m3!1d1512.1752065222272!2d-73.98185272772199!3d40.710301924484554!2m3!1f0!2f0!3f0!3m2!1i1024!2i768!4f13.1!3m3!1m2!1s0x89c25bd483707945%3A0x412aca3ed494226b!2sPier%2042!5e1!3m2!1sen!2s!4v1753921636514!5m2!1sen!2s"" width=""600"" height=""450"" style=""border:0;"" allowfullscreen="""" loading=""lazy"" referrerpolicy=""no-referrer-when-downgrade""></iframe>"
Van Vorghees Tennis Courts,"Atlantic Ave, Brooklyn, NY 11201, United States",Brooklyn,Hard,"Required, but Rarely Checked",2,All Year,6 am - dusk,"Sign-Up:
* Required: You must sign up for a court.
* Permit: Technically required, but never checked. Just write random numbers on the permit section of the sign-up sheet and you’ll be fine.
* Peak Times: Courts usually fully booked before 8:00 AM in summer.
* Strategy: Arrive before 6:30 AM to secure your desired court time for any hour of the day.
Amenities:
* Restrooms in the park.
* Water fountains available.",40.69008136,-73.99996502,"<iframe src=""https://www.google.com/maps/embed?pb=!1m18!1m12!1m3!1d3025.2627064496505!2d-74.00229317397543!3d40.690211521396854!2m3!1f0!2f0!3f0!3m2!1i1024!2i768!4f13.1!3m3!1m2!1s0x89c25a449a1b5313%3A0x6f9da45dcf096dab!2sVan%20Voorhees%20Park%20Tennis%20Courts!5e1!3m2!1sen!2s!4v1753972856015!5m2!1sen!2s"" width=""600"" height=""450"" style=""border:0;"" allowfullscreen="""" loading=""lazy"" referrerpolicy=""no-referrer-when-downgrade""></iframe>"
Fort Greene Tennis Courts,"136-144, DeKalb Ave, Brooklyn, NY 11217, United States",Brooklyn,Hard,Required & Enforced,6,All Year,8am-8pm,"Sign-Ups & Permits:

A sign-up sheet governs play from 8 AM - 7 PM.

Strategy: Arrive around 7 AM to secure your ideal court time on the sign-up sheet.

Wait Times:

Courts are booked early in the morning.

If you don't show up to sign up, you will not be able to play later in the day.

Early Morning Access (Before 8 AM):

No park attendants, so sign-up times are not enforced.              Beyond the defined tennis season, permits are not required to use the tennis courts, and they are generally available on a first-come, first-served basis during park hours. 

Pro Tip: Players often arrive around 6 AM for walk-on play and may stay until 8 AM.",40.6907096,-73.97546384,"<iframe src=""https://www.google.com/maps/embed?pb=!1m18!1m12!1m3!1d2973.275106753196!2d-73.98025105081932!3d40.69055769274957!2m3!1f0!2f0!3f0!3m2!1i1024!2i768!4f13.1!3m3!1m2!1s0x89c25bb6c6fe52c7%3A0x2b3bb16e97b13c01!2sFort%20Greene%20Tennis%20Courts!5e1!3m2!1sen!2s!4v1753974739170!5m2!1sen!2s"" width=""600"" height=""450"" style=""border:0;"" allowfullscreen="""" loading=""lazy"" referrerpolicy=""no-referrer-when-downgrade""></iframe>"
South Oxford Park Tennis Courts,"197 S Oxford St, Brooklyn, NY 11217, United States",Brooklyn ,Hard,Not Required ,2,All Year,7-am- dusk,"First-come, first-served. Add or check wait times here. When at the court, scan the QR for quick access — your update helps others, and theirs helps you.

Once arriving at the courts, there will be benches where if there’s a wait there will be fellow tennis players waiting, communicate clearly with them to figure out wait time, and wait your turn respectfully keeping track of your time. Play is limited to one hour",40.6843417,-73.97245864,"<iframe src=""https://www.google.com/maps/embed?pb=!1m18!1m12!1m3!1d10208.22994508242!2d-73.98502009304687!3d40.68565933106024!2m3!1f0!2f0!3f0!3m2!1i1024!2i768!4f13.1!3m3!1m2!1s0x89c25bafe8846c0f%3A0x4227ade159350f29!2sSouth%20Oxford%20Park!5e1!3m2!1sen!2s!4v1753975703343!5m2!1sen!2s"" width=""600"" height=""450"" style=""border:0;"" allowfullscreen="""" loading=""lazy"" referrerpolicy=""no-referrer-when-downgrade""></iframe>"
McCarren Park Tennis Courts,"50 Bedford Ave, Brooklyn, NY 11222, United States",Brooklyn,Hard,Required & Enforced,7,All Year,7am - 8pm,"Permits & Sign-Ups:
* 7 AM - 7 PM (In Season): Permit required. Arrive  before 7:00 AM to secure your ideal sign-up time.
* After 7 PM: No permit required.
Winter Access (Approx. Columbus Day - April 27th):
* A bubble is erected for indoor play. Operated by McCarren Tennis Center.
* Rates:
    * Weekdays: $40-$55/hour.
    * Weekends: $50-$55/hour.
    * Senior Rate: $15/hour (with 10% off season passes).
* Note: NYC Parks Tennis permit is required in addition to the hourly fee.",40.72180079,-73.95456065,"<iframe src=""https://www.google.com/maps/embed?pb=!1m18!1m12!1m3!1d814.1225211045479!2d-73.9552336814057!3d40.72124472649606!2m3!1f0!2f0!3f0!3m2!1i1024!2i768!4f13.1!3m3!1m2!1s0x89c2594353ffde91%3A0xe92e87340323544a!2sMcCarren%20Park%20Tennis%20Courts!5e1!3m2!1sen!2s!4v1753978238473!5m2!1sen!2s"" width=""600"" height=""450"" style=""border:0;"" allowfullscreen="""" loading=""lazy"" referrerpolicy=""no-referrer-when-downgrade""></iframe>"
Jackie Robinson Park Tennis Courts,Malcom X Blvd. between Chauncey St. and Marion St.,Brooklyn,Hard,"Required, but Rarely Checked",4,All Year,7 am - dusk,"Usually able to walk on to the courts, permits unchecked, if courts are taken wait your turn communicate, be respectful. Make sure to keep court time to an hour max.",40.68034119,-73.92805904,"<iframe src=""https://www.google.com/maps/embed?pb=!1m18!1m12!1m3!1d828.6097523331764!2d-73.92928132234022!3d40.680936110703485!2m3!1f0!2f0!3f0!3m2!1i1024!2i768!4f13.1!3m3!1m2!1s0x89c25c70e311520d%3A0xa4f1bf198f2bcdd2!2sJackie%20Robinson%20Park%20Playground%20Tennis%20Courts!5e1!3m2!1sen!2s!4v1753978362592!5m2!1sen!2s"" width=""600"" height=""450"" style=""border:0;"" allowfullscreen="""" loading=""lazy"" referrerpolicy=""no-referrer-when-downgrade""></iframe>"
Prospect Park Tennis Courts,"50 Parkside Ave, Brooklyn, NY",Brooklyn ,Hard,Required & Enforced,11,All Year,6 am - 11 pm,"Access:
* In Season (May 21 – Oct 5): NYC Parks Department Court Pass required.
* Winter Season (Oct 16 – Apr 28): A bubble is erected for indoor play. Courts are for paid reservation only.
Hours:
* Outdoor Season: 6 AM – 11 PM
* Indoor Season: Hours vary by time slot.
Booking & Sign-Ups:
* Outdoor Courts: Reservations for permit holders are $15 per hour, bookable 7 days in advance.
* Indoor Courts: To reserve, contact the Prospect Park Tennis Center directly via their website or phone.
* Note: Strict 24-hour cancellation policy for all reservations.
Outdoor Court Rates (per hour):
* Reservations for permit holders: $15
* Night Play (7-11 PM): Mon-Thurs: $40 | Fri-Sun: $32
Indoor Court Rates (per hour):
* Mon-Thurs: $42-$80 (varies by time)
* Friday: $42-$88 (varies by time)
* Sat-Sun: $42-$90 (varies by time)
* Discounts: Senior rates available for ages 62+.
Lessons:
* Outdoor: $85-$100/hour range, depending on staff or head pro.
* Indoor: Available for a fee (contact center for rates).
Amenities:
* Pro shop, restrooms, and locker rooms available.
* Water fountains and snack bar.",40.65148099,-73.970349,"<iframe src=""https://www.google.com/maps/embed?pb=!1m18!1m12!1m3!1d3027.0296186163755!2d-73.97515551406532!3d40.65127749766718!2m3!1f0!2f0!3f0!3m2!1i1024!2i768!4f13.1!3m3!1m2!1s0x89c25b152102ea85%3A0xaa6370adfa7b3706!2sProspect%20Park%20Tennis%20Center!5e1!3m2!1sen!2s!4v1754082664003!5m2!1sen!2s"" width=""600"" height=""450"" style=""border:0;"" allowfullscreen="""" loading=""lazy"" referrerpolicy=""no-referrer-when-downgrade""></iframe>"
Leif Ericson Tennis Courts,"67th Street &, 8th Ave, Brooklyn, NY 11220, United States",Brooklyn,Hard,"Required, but Rarely Checked",9,All Year,7 am til dusk,"Wait Times:

Expect wait time before getting on the court.

Courts are usually busy weekday afternoons in season.

Etiquette: Please respect the 1-hour play limit.                                                                                         You can check or add live wait times on this page, or scan the QR code on-site for quick access.
Your update helps others, and theirs helps you — the more we share, the better it works for everyone. ",40.63232121,-74.01431633,"<iframe src=""https://www.google.com/maps/embed?pb=!1m18!1m12!1m3!1d2904.659228204256!2d-74.01304010630285!3d40.63167291527274!2m3!1f0!2f0!3f0!3m2!1i1024!2i768!4f13.1!3m3!1m2!1s0x89c2454f6cb6c931%3A0x9965f9b9d09a4b14!2sLeif%20Ericson%20Tennis%20Courts!5e0!3m2!1sen!2s!4v1754187719973!5m2!1sen!2s"" width=""600"" height=""450"" style=""border:0;"" allowfullscreen="""" loading=""lazy"" referrerpolicy=""no-referrer-when-downgrade""></iframe>"
Manhattan Beach Tennis Courts,"Oriental Blvd &, Mackenzie St, Brooklyn, NY 11235, United States",Brooklyn,Hard,"Required, but Rarely Checked",6,All Year,7 am til dusk,"Although Park Organization says permit is required, no attendant to check up on it, you can show up and play on the courts at your will as they are open",40.57761443,-73.9396519,"<iframe src=""https://www.google.com/maps/embed?pb=!1m18!1m12!1m3!1d3030.370696620213!2d-73.94223962398097!3d40.57757227141419!2m3!1f0!2f0!3f0!3m2!1i1024!2i768!4f13.1!3m3!1m2!1s0x89c24476efe1e065%3A0x3815610cffc3f3b6!2sManhattan%20Beach%20Tennis%20Courts!5e0!3m2!1sen!2s!4v1754249708881!5m2!1sen!2s"" width=""600"" height=""450"" style=""border:0;"" allowfullscreen="""" loading=""lazy"" referrerpolicy=""no-referrer-when-downgrade""></iframe>"
Friends Field Tennis Courts,"1328 E 4th St, Brooklyn, NY 11230, United States",Brooklyn,Hard,"Required, but Rarely Checked",2,All Year,7am til dusk,"No on-site attendant to enforce permits, so play can be a bit unstructured.
Courts are typically first-come, first-served — communicate clearly and be respectful with fellow players to sort out wait times fairly.
You can check or add live wait times on this page, or scan the on-site QR code for quick access.
Your update helps others, and theirs helps you — the more we share, the better it works for everyone.

",40.61839121,-73.97233252,"<iframe src=""https://www.google.com/maps/embed?pb=!1m18!1m12!1m3!1d3028.5225751995954!2d-73.97489812397896!3d40.618356071407966!2m3!1f0!2f0!3f0!3m2!1i1024!2i768!4f13.1!3m3!1m2!1s0x89c244dcc47dc93f%3A0x98333e936451020c!2sFriends%20Field%20Tennis%20Courts!5e0!3m2!1sen!2s!4v1754249732817!5m2!1sen!2s"" width=""600"" height=""450"" style=""border:0;"" allowfullscreen="""" loading=""lazy"" referrerpolicy=""no-referrer-when-downgrade""></iframe>"
Kaiser Park Tennis Courts,"2701-2793 Neptune Ave, Brooklyn, NY 11224, United States",Brooklyn,Hard,"Required, but Rarely Checked",12,All Year,7am til dusk,"No on-site attendant to enforce permits, so play can be a bit unstructured.
Courts are typically first-come, first-served — communicate clearly and be respectful with fellow players to sort out wait times fairly.
",40.5787101,-73.99443609,"<iframe src=""https://www.google.com/maps/embed?pb=!1m18!1m12!1m3!1d8040.2438449398!2d-73.98902818367708!3d40.569738133292695!2m3!1f0!2f0!3f0!3m2!1i1024!2i768!4f13.1!3m3!1m2!1s0x89c245c803d7e115%3A0xd09095f213995c08!2sKaiser%20Park%20Tennis%20Courts!5e0!3m2!1sen!2s!4v1754249874084!5m2!1sen!2s"" width=""600"" height=""450"" style=""border:0;"" allowfullscreen="""" loading=""lazy"" referrerpolicy=""no-referrer-when-downgrade""></iframe>"
Lucille Ferrier Tennis Courts,"286-298 Firefighter Jimmy Riches Wy, Brooklyn, NY 11228, United States",Brooklyn,Hard,"Required, but Rarely Checked",9,All Year,7am til dusk,"No on-site attendant to enforce permits, so play can be a bit unstructured.
Courts are typically first-come, first-served — communicate clearly and be respectful with fellow players to sort out wait times fairly.",40.60616851,-74.01685029,"<iframe src=""https://www.google.com/maps/embed?pb=!1m18!1m12!1m3!1d3029.080184927587!2d-74.01946812397959!3d40.60605447140967!2m3!1f0!2f0!3f0!3m2!1i1024!2i768!4f13.1!3m3!1m2!1s0x89c245774839fb2b%3A0xb99549a492cb0260!2sLucille%20Ferrier%20Tennis%20Courts!5e0!3m2!1sen!2s!4v1754249948835!5m2!1sen!2s"" width=""600"" height=""450"" style=""border:0;"" allowfullscreen="""" loading=""lazy"" referrerpolicy=""no-referrer-when-downgrade""></iframe>"
Marine Park Tennis Courts,"E. 32nd St &, Ave. S, Brooklyn, NY 11229, United States",Brooklyn,Hard,Required & Enforced,15,All Year,7am til dusk,"Courts permits are enforced by park attendant, make sure to bring your permit card. Courts can get busy so be prepared for a wait time.",40.60844774,-73.93537654,"<iframe src=""https://www.google.com/maps/embed?pb=!3m2!1sen!2s!4v1754250068636!5m2!1sen!2s!6m8!1m7!1s9vCuMVizERRfWRn4mIFzPA!2m2!1d40.60871652826484!2d-73.93515659536719!3f202.38035572318552!4f12.846731087272232!5f0.7820865974627469"" width=""600"" height=""450"" style=""border:0;"" allowfullscreen="""" loading=""lazy"" referrerpolicy=""no-referrer-when-downgrade""></iframe>"
Lincoln Terrace Park Tennis Courts,"299 Buffalo Ave, Brooklyn, NY 11213, United States",Brooklyn,Hard,"Required, but Rarely Checked",11,All Year,7am til dusk,"No on-site attendant to enforce permits, so play can be a bit unstructured.
Courts are typically first-come, first-served — communicate clearly and be respectful with fellow players to sort out wait times fairly.    You can check or add live wait times on this page, or scan the on-site QR code for quick access (If applicable).
Your update helps others, and theirs helps you — the more we share, the better it works for everyone.

",40.66695334,-73.92521399,"<iframe src=""https://www.google.com/maps/embed?pb=!1m18!1m12!1m3!1d756.5802418531497!2d-73.92520057873162!3d40.666896371215586!2m3!1f0!2f0!3f0!3m2!1i1024!2i768!4f13.1!3m3!1m2!1s0x89c25c87eecf8247%3A0x91d128a5f4e46d49!2sLincoln%20Terrace%20Park%20Tennis%20Courts!5e0!3m2!1sen!2s!4v1754250157254!5m2!1sen!2s"" width=""600"" height=""450"" style=""border:0;"" allowfullscreen="""" loading=""lazy"" referrerpolicy=""no-referrer-when-downgrade""></iframe>"
Highland Park Tennis Courts,"Sunnyside Ave &, Sunnyside Ct, Brooklyn, NY 11208, United States",Brooklyn,Hard,Not Required,10,All Year,7am til 10 pm (Floodlights),"Courts are typically first-come, first-served — communicate clearly and be respectful with fellow players to sort out wait times fairly.    You can check or add live wait times on this page, or scan the on-site QR code for quick access (If applicable).
Your update helps others, and theirs helps you — the more we share, the better it works for everyone.
",40.68388156,-73.88789869,"<iframe src=""https://www.google.com/maps/embed?pb=!1m18!1m12!1m3!1d665.6669453832858!2d-73.888536023695!3d40.683353503187604!2m3!1f0!2f0!3f0!3m2!1i1024!2i768!4f13.1!3m3!1m2!1s0x89c25dcac39a4db7%3A0xef98af4771f785c5!2sHighland%20Park%20Tennis%20Courts!5e0!3m2!1sen!2s!4v1754250332655!5m2!1sen!2s"" width=""600"" height=""450"" style=""border:0;"" allowfullscreen="""" loading=""lazy"" referrerpolicy=""no-referrer-when-downgrade""></iframe>"
John J Carty Park Tennis Courts,"Brooklyn, NY 11209, United States",Brooklyn,Hard,Required and Enforced,10,All Year,7am til dusk,,40.61229453,-74.03113,"<iframe src=""https://www.google.com/maps/embed?pb=!1m18!1m12!1m3!1d3028.8084271435646!2d-74.03589360415938!3d40.61205018838795!2m3!1f0!2f0!3f0!3m2!1i1024!2i768!4f13.1!3m3!1m2!1s0x89c24f7e9058a205%3A0x39a9f0aab294b2d2!2sJohn%20J.%20Carty%20Park%20Tennis%20Courts!5e0!3m2!1sen!2s!4v1754250897897!5m2!1sen!2s"" width=""600"" height=""450"" style=""border:0;"" allowfullscreen="""" loading=""lazy"" referrerpolicy=""no-referrer-when-downgrade""></iframe>"
Joseph T. McGuire Park Tennis Courts,"Brooklyn, NY 11234, United States",Brooklyn,Hard,"Required, but Rarely Checked",3,All Year,7am til dusk,"Courts are typically first-come, first-served — communicate clearly and be respectful with fellow players to sort out wait times fairly.    ",40.62013136,-73.89860402,"<iframe src=""https://www.google.com/maps/embed?pb=!1m18!1m12!1m3!1d1514.2234462526733!2d-73.89985393250043!3d40.620025493284075!2m3!1f0!2f0!3f0!3m2!1i1024!2i768!4f13.1!3m3!1m2!1s0x89c2432ddae85d0b%3A0x61b41459060db66c!2sMcGuire%20Fields%20Tennis%20Courts!5e0!3m2!1sen!2s!4v1754251016061!5m2!1sen!2s"" width=""600"" height=""450"" style=""border:0;"" allowfullscreen="""" loading=""lazy"" referrerpolicy=""no-referrer-when-downgrade""></iframe>"
Mckinley Park Tennis Courts,"806-898 Bay Ridge Pkwy, Brooklyn, NY 11228, United States",Brooklyn,Hard,"Required, but Rarely Checked",8,All Year,7am til dusk,"Courts are typically first-come, first-served — communicate clearly and be respectful with fellow players to sort out wait times fairly.    ",40.62597122,-74.017503,"<iframe src=""https://www.google.com/maps/embed?pb=!1m18!1m12!1m3!1d3028.1843391840944!2d-74.02226660321045!3d40.625816500000006!2m3!1f0!2f0!3f0!3m2!1i1024!2i768!4f13.1!3m3!1m2!1s0x89c24543452893b7%3A0x49ae7010335f0ad5!2sMcKinley%20Park%20Tennis%20Courts!5e0!3m2!1sen!2s!4v1754251173589!5m2!1sen!2s"" width=""600"" height=""450"" style=""border:0;"" allowfullscreen="""" loading=""lazy"" referrerpolicy=""no-referrer-when-downgrade""></iframe>"
Linden Park Tennis Courts,"Stanley Ave, Brooklyn, NY 11207, United States",Brooklyn,Hard,Not Required,5,All Year,7am til dusk,"Courts are typically first-come, first-served — communicate clearly and be respectful with fellow players to sort out wait times fairly.    ",40.65861335,-73.88662969,"<iframe src=""https://www.google.com/maps/embed?pb=!1m18!1m12!1m3!1d1526.75146302066!2d-73.88733323580249!3d40.65783740788042!2m3!1f0!2f0!3f0!3m2!1i1024!2i768!4f13.1!3m3!1m2!1s0x89c25d01986987a3%3A0xa4a5d4d272b6ab12!2sLinden%20Park%20Tennis%20Courts!5e0!3m2!1sen!2s!4v1754251319867!5m2!1sen!2s"" width=""600"" height=""450"" style=""border:0;"" allowfullscreen="""" loading=""lazy"" referrerpolicy=""no-referrer-when-downgrade""></iframe>"
Mcdonald Avenue Playground Tennis Courts,"2099 McDonald Ave, Brooklyn, NY 11223, United States",Brooklyn,Hard,"Required, but Rarely Checked",7,All Year,7am til dusk,"Courts are typically first-come, first-served — communicate clearly and be respectful with fellow players to sort out wait times fairly.    ",40.60061067,-73.97206031,"<iframe src=""https://www.google.com/maps/embed?pb=!1m18!1m12!1m3!1d757.3320244668863!2d-73.97269063037142!3d40.60058419821317!2m3!1f0!2f0!3f0!3m2!1i1024!2i768!4f13.1!3m3!1m2!1s0x89c244fa1b12e5bf%3A0xe1da15efa857815e!2sMcDonald%20Playground!5e0!3m2!1sen!2s!4v1754251574770!5m2!1sen!2s"" width=""600"" height=""450"" style=""border:0;"" allowfullscreen="""" loading=""lazy"" referrerpolicy=""no-referrer-when-downgrade""></iframe>"
Shore Road Playground Tennis Courts,"9500 Shore Rd, Brooklyn, NY 11209, United States",Brooklyn,Hard,"Required, but Rarely Checked",4,All Year,7am til dusk,"Courts are typically first-come, first-served — communicate clearly and be respectful with fellow players to sort out wait times fairly.  6 doubles courts and 5 singles 
",40.61261522,-74.03694311,"<iframe src=""https://www.google.com/maps/embed?pb=!1m18!1m12!1m3!1d3028.7909372027893!2d-74.03996863996088!3d40.61243603906178!2m3!1f0!2f0!3f0!3m2!1i1024!2i768!4f13.1!3m3!1m2!1s0x89c24f8f0f7cedb3%3A0xc7ee634bf698a9da!2sShore%20Road%20Park%20Tennis%20Courts!5e1!3m2!1sen!2s!4v1754251738724!5m2!1sen!2s"" width=""600"" height=""450"" style=""border:0;"" allowfullscreen="""" loading=""lazy"" referrerpolicy=""no-referrer-when-downgrade""></iframe>"
Bensonhurst Park Tennis Courts,"9000 Bay Pkwy, Brooklyn, NY 11214, United States",Brooklyn,Hard,"Required, but Rarely Checked",7,All Year,7am til dusk,"Indoor Season: Oct (after Columbus Day) - Apr (last Fri): All 7 courts bubbled; rent for a fee. For court reservations call (718) 866- 1031
Outdoor Season: 6 courts available to Parks permit holders. ",40.59511365,-74.00162952,"<iframe src=""https://www.google.com/maps/embed?pb=!1m18!1m12!1m3!1d3029.584486223826!2d-74.00416152398017!3d40.59492627141152!2m3!1f0!2f0!3f0!3m2!1i1024!2i768!4f13.1!3m3!1m2!1s0x89c245a144f025d1%3A0x5a9f9a56d644f954!2sBensonhurst%20Park%20Tennis%20Courts!5e1!3m2!1sen!2s!4v1754251884141!5m2!1sen!2s"" width=""600"" height=""450"" style=""border:0;"" allowfullscreen="""" loading=""lazy"" referrerpolicy=""no-referrer-when-downgrade""></iframe>"
Cooper Park ,"Morgan Ave, Brooklyn, NY 11211, United States",Brooklyn,Hard,Not Required,2,All Year,7am til dusk,"Courts are typically first-come, first-served — communicate clearly and be respectful with fellow players to sort out wait times fairly.    ",40.71600784,-73.93634853,"<iframe src=""https://www.google.com/maps/embed?pb=!1m18!1m12!1m3!1d3024.091981949333!2d-73.93891272397413!3d40.71599157139305!2m3!1f0!2f0!3f0!3m2!1i1024!2i768!4f13.1!3m3!1m2!1s0x89c259532ea8d8c9%3A0x6761551bdf9c125!2sCooper%20Park%20Tennis%20Courts!5e1!3m2!1sen!2s!4v1754252170629!5m2!1sen!2s"" width=""600"" height=""450"" style=""border:0;"" allowfullscreen="""" loading=""lazy"" referrerpolicy=""no-referrer-when-downgrade""></iframe>"
Juniper Valley Tennis Courts,"Juniper Valley Park
62nd Ave. & 80th St.",Queens,Hard,"Required, but Rarely Checked",8,All Year,7 am til dusk,"Courts are typically first-come, first-served — communicate clearly and be respectful with fellow players to sort out wait times fairly.    ",40.7203837,-73.87663342,"<iframe src=""https://www.google.com/maps/embed?pb=!1m18!1m12!1m3!1d3023.892834678126!2d-73.8790152239739!3d40.720375571392395!2m3!1f0!2f0!3f0!3m2!1i1024!2i768!4f13.1!3m3!1m2!1s0x89c25e42a6210fc1%3A0xbb76d292c95a8e6a!2sJuniper%20Valley%20Tennis%20Courts!5e1!3m2!1sen!2s!4v1754255641043!5m2!1sen!2s"" width=""600"" height=""450"" style=""border:0;"" allowfullscreen="""" loading=""lazy"" referrerpolicy=""no-referrer-when-downgrade""></iframe>"
USTA Billie Jean King Tennis Center,,Queens,Hard,Reservation,31,All Year except during the US Open,,"Courts: 19 Outdoor Hard Courts, 12 Indoor Hard Courts.

Access & Booking:

NYC Tennis Permit required.

Courts must be reserved in advance via the USTA BJK NTC website or CourtReserve app.

Reservation Window: Bookings open two days ahead.

Court Fee: $40 per hour (in addition to permit).

Quality: Pristine, professional-grade courts. Play where the pros play!

Wait Times: Can be very busy, especially during peak season.

Amenities:

Pro shop.

Restrooms & changing rooms.

Food & beverage concessions.",40.75016033,-73.8469958,"<iframe src=""https://www.google.com/maps/embed?pb=!1m18!1m12!1m3!1d3022.5467548480274!2d-73.84957072397245!3d40.749997771387854!2m3!1f0!2f0!3f0!3m2!1i1024!2i768!4f13.1!3m3!1m2!1s0x89c25fd937d0be03%3A0xb0118df7792c6346!2sUSTA%20Billie%20Jean%20King%20National%20Tennis%20Center!5e1!3m2!1sen!2s!4v1754255930930!5m2!1sen!2s"" width=""600"" height=""450"" style=""border:0;"" allowfullscreen="""" loading=""lazy"" referrerpolicy=""no-referrer-when-downgrade""></iframe>"
Astoria Park Tennis Courts,"Astoria Park
21st St. & Hoyt Ave.",Queens,Hard,Required,14,All Year,7am til dusk,"one hour for singles, two hours for doubles. Park Attendant present with sign up sheet, show up 30 minutes early to get a court

Closing times: April 1st to may 13th 7 pm
May 14th to sept 3rd 8 pm 
Sep 4th to 28th 7 pm seo 29th to nov 21st 5:00 pm",40.77580791,-73.92437605,"<iframe src=""https://www.google.com/maps/embed?pb=!1m18!1m12!1m3!1d3021.3813713226523!2d-73.92697242397111!3d40.77562917138413!2m3!1f0!2f0!3f0!3m2!1i1024!2i768!4f13.1!3m3!1m2!1s0x89c25f4ff636e2c3%3A0x6ef69b1571e14d0b!2sAstoria%20Park%20Tennis%20Courts!5e1!3m2!1sen!2s!4v1754256056367!5m2!1sen!2s"" width=""600"" height=""450"" style=""border:0;"" allowfullscreen="""" loading=""lazy"" referrerpolicy=""no-referrer-when-downgrade""></iframe>"
Baisley Park Tennis Courts,"        Baisley Pond Park
155th St. & 118th Ave.",Queens,Hard,"Required, but Rarely Checked",4,All Year,7 am til 10 pm (Night Lights),"Courts are typically first-come, first-served — communicate clearly and be respectful with fellow players to sort out wait times fairly.    ",40.68083075,-73.78718099,"<iframe src=""https://www.google.com/maps/embed?pb=!1m18!1m12!1m3!1d3025.6863383115515!2d-73.78972372397583!3d40.680879571398314!2m3!1f0!2f0!3f0!3m2!1i1024!2i768!4f13.1!3m3!1m2!1s0x89c266d110c9e349%3A0xf9ad7bb551de8366!2sBaisley%20Park%20Tennis%20Courts!5e1!3m2!1sen!2s!4v1754256477940!5m2!1sen!2s"" width=""600"" height=""450"" style=""border:0;"" allowfullscreen="""" loading=""lazy"" referrerpolicy=""no-referrer-when-downgrade""></iframe>"
Baisley South Tennis Courts,"Baisley Pond Park
N. Conduit Ave. & 150th St.",Queens,Hard,"Required, but Rarely Checked",4,All Year,7 am til dusk,"Courts are typically first-come, first-served — communicate clearly and be respectful with fellow players to sort out wait times fairly.    ",40.66966339,-73.78846549,"<iframe src=""https://www.google.com/maps/embed?pb=!1m18!1m12!1m3!1d3026.196325878403!2d-73.79180685439556!3d40.66964299349404!2m3!1f0!2f0!3f0!3m2!1i1024!2i768!4f13.1!3m3!1m2!1s0x89c266ddc4d3dca9%3A0x9d25759258931896!2sBaisley%20South%20Tennis%20Courts!5e1!3m2!1sen!2s!4v1754258218355!5m2!1sen!2s"" width=""600"" height=""450"" style=""border:0;"" allowfullscreen="""" loading=""lazy"" referrerpolicy=""no-referrer-when-downgrade""></iframe>"
Broad Channel Park Tennis Courts,"Broad Channel Park
Crossbay Blvd. and E. 16-E. 18 Rds.",Queens,Hard,"Required, but Rarely Checked",2,All Year,7am til dusk,"Courts are typically first-come, first-served — communicate clearly and be respectful with fellow players to sort out wait times fairly.    ",40.6008384,-73.81964941,"<iframe src=""https://www.google.com/maps/embed?pb=!1m18!1m12!1m3!1d843.8892588900732!2d-73.82056696113861!3d40.6007635180727!2m3!1f0!2f0!3f0!3m2!1i1024!2i768!4f13.1!3m3!1m2!1s0x89c2681320954a77%3A0x280a45be25623c8e!2sBroad%20Channel%20Park!5e1!3m2!1sen!2s!4v1754258392776!5m2!1sen!2s"" width=""600"" height=""450"" style=""border:0;"" allowfullscreen="""" loading=""lazy"" referrerpolicy=""no-referrer-when-downgrade""></iframe>"
Brookville Park Tennis Courts,"Brookville Park
Brookville Blvd. & Southern Pkwy.",Queens,Hard,"Required, but Rarely Checked",6,All Year,7am til 10 pm (Floodlights) ,"Courts are typically first-come, first-served — communicate clearly and be respectful with fellow players to sort out wait times fairly.    ",40.66175203,-73.74444204,"<iframe src=""https://www.google.com/maps/embed?pb=!1m18!1m12!1m3!1d779.6642655823588!2d-73.74425133734785!3d40.661565437133675!2m3!1f0!2f0!3f0!3m2!1i1024!2i768!4f13.1!3m3!1m2!1s0x89c2641f7e762bbf%3A0x92c942ceaa104181!2sBrookville%20Park%20Tennis%20Courts!5e1!3m2!1sen!2s!4v1754265336826!5m2!1sen!2s"" width=""600"" height=""450"" style=""border:0;"" allowfullscreen="""" loading=""lazy"" referrerpolicy=""no-referrer-when-downgrade""></iframe>"
Commonpoint Queens Tennis Center,"153-1 Reeves Ave, Flushing, NY 11367",Queens,Hard,Reservation,15,All Year,7am til dusk,"4 courts available through reservation through the NYC Park Organization (Add a link) the other 11 are walk-on courts. Bubble erected over the winter, log in on the common point queens website to book a court during the indoor months which are between, october through april",40.73957239,-73.73591713,"<iframe src=""https://www.google.com/maps/embed?pb=!1m18!1m12!1m3!1d3023.032414572536!2d-73.73873880948896!3d40.73931226135222!2m3!1f0!2f0!3f0!3m2!1i1024!2i768!4f13.1!3m3!1m2!1s0x89c26222bce991fb%3A0xb426b0ff1c7554f9!2sAlley%20Pond%20Park%20Tennis%20Courts!5e1!3m2!1sen!2s!4v1754267835850!5m2!1sen!2s"" width=""600"" height=""450"" style=""border:0;"" allowfullscreen="""" loading=""lazy"" referrerpolicy=""no-referrer-when-downgrade""></iframe>"
Det. Keith L. Williams Park Tennis Courts,"Detective Keith L Williams Park
Liberty Ave. & 173rd St.",Queens,Hard,Free,10,All Year,6 am to 10 pm (Floodlights),"Courts are typically first-come, first-served — communicate clearly and be respectful with fellow players to sort out wait times fairly. If you have a NYC tennis permit, bring your card just in case theres a park attendant ",40.70370035,-73.78524533,"<iframe src=""https://www.google.com/maps/embed?pb=!1m18!1m12!1m3!1d829.7507357494391!2d-73.7857059413538!3d40.70339466585017!2m3!1f0!2f0!3f0!3m2!1i1024!2i768!4f13.1!3m3!1m2!1s0x89c26123113bdd97%3A0xddeda542a661e4da!2sDetective%20Keith%20L.%20Williams%20Tennis%20Courts!5e1!3m2!1sen!2s!4v1754268745369!5m2!1sen!2s"" width=""600"" height=""450"" style=""border:0;"" allowfullscreen="""" loading=""lazy"" referrerpolicy=""no-referrer-when-downgrade""></iframe>"
Flushing Fields Memorial Tennis Courts        ,"Flushing Fields
149th St. & 25th Ave.",Queens,Hard,"Required, but Rarely Checked",8,All Year,7am til dusk,"Courts are typically first-come, first-served — communicate clearly and be respectful with fellow players to sort out wait times fairly.    ",40.77483172,-73.8165726,"<iframe src=""https://www.google.com/maps/embed?pb=!1m18!1m12!1m3!1d901.0012844101984!2d-73.81760759830003!3d40.7742308588013!2m3!1f0!2f0!3f0!3m2!1i1024!2i768!4f13.1!3m3!1m2!1s0x89c28a9f3c3ced43%3A0xad661794f47185f8!2sFlushing%20Fields%20Tennis%20Courts!5e0!3m2!1sen!2s!4v1754268914194!5m2!1sen!2s"" width=""600"" height=""450"" style=""border:0;"" allowfullscreen="""" loading=""lazy"" referrerpolicy=""no-referrer-when-downgrade""></iframe>"
Forest Park Tennis Courts,"        Forest Park
Park Lane South & 89th St.",Queens,Hard,"Required, but Rarely Checked",5,All Year,8am-8pm,"Courts are typically first-come, first-served — communicate clearly and be respectful with fellow players to sort out wait times fairly.    ",40.69747497,-73.85653946,"<iframe src=""https://www.google.com/maps/embed?pb=!1m18!1m12!1m3!1d3024.9514871637143!2d-73.85915228841394!3d40.69706607127653!2m3!1f0!2f0!3f0!3m2!1i1024!2i768!4f13.1!3m3!1m2!1s0x89c25de28076aa71%3A0x343414d1fc0a0bde!2sForest%20Park%20Tennis%20Courts!5e0!3m2!1sen!2s!4v1754269535654!5m2!1sen!2s"" width=""600"" height=""450"" style=""border:0;"" allowfullscreen="""" loading=""lazy"" referrerpolicy=""no-referrer-when-downgrade""></iframe>"
Kissena Park Tennis Courts       ,"Kissena Park
Rose & Oak Aves.",Queens,Hard and Har-Tru,"Required, but Rarely Checked",12 Courts (4 Hard and 8 Har-Tru),All Year,8am til dusk,"4 Hard and 8 Har-Tru Courts. Courts are typically first-come, first-served — communicate clearly and be respectful with fellow players to sort out wait times fairly.    ",40.7481879,-73.80979666,"<iframe src=""https://www.google.com/maps/embed?pb=!1m18!1m12!1m3!1d1861.9145211953523!2d-73.81231794313894!3d40.74808776709079!2m3!1f0!2f0!3f0!3m2!1i1024!2i768!4f13.1!3m3!1m2!1s0x89c2604797c8aa0f%3A0xfdbb73700214b229!2sKissena%20Park%20Tennis%20Courts!5e0!3m2!1sen!2s!4v1754270016134!5m2!1sen!2s"" width=""600"" height=""450"" style=""border:0;"" allowfullscreen="""" loading=""lazy"" referrerpolicy=""no-referrer-when-downgrade""></iframe>"
Maurice Park Tennis Courts,"Frank Principe Park
Maurice Ave., LIE Service Rd. Westbound",Queens,Hard,Not Required,2,All Year,7am til dusk,"Attendants dont enforce a maximum playtime which can be frustrating for those waiting. Courts are typically first-come, first-served — communicate clearly and be respectful with fellow players to sort out wait times fairly.    ",40.7274993,-73.90402952,"<iframe src=""https://www.google.com/maps/embed?pb=!1m18!1m12!1m3!1d755.8913059888288!2d-73.9039343!3d40.727586699999996!2m3!1f0!2f0!3f0!3m2!1i1024!2i768!4f13.1!3m3!1m2!1s0x89c25f85c271322b%3A0xcbf018c4f43af1c7!2sTennis%20Courts!5e0!3m2!1sen!2s!4v1754270174350!5m2!1sen!2s"" width=""600"" height=""450"" style=""border:0;"" allowfullscreen="""" loading=""lazy"" referrerpolicy=""no-referrer-when-downgrade""></iframe>"
Michaelis Bayswater Park Tennis Courts,"Bayswater Park
32nd St. & Dickens Ave.",Queens,Hard,Not Required,6,All Year,7 am til dusk,"Courts are typically first-come, first-served — communicate clearly and be respectful with fellow players to sort out wait times fairly.    ",40.59872295,-73.76801314,"<iframe src=""https://www.google.com/maps/embed?pb=!1m18!1m12!1m3!1d836.8157133118809!2d-73.76889186404492!3d40.59904923733523!2m3!1f0!2f0!3f0!3m2!1i1024!2i768!4f13.1!3m3!1m2!1s0x89c269003a41c7ad%3A0x83d0bfc98fa855fd!2sTennis%20Courts!5e0!3m2!1sen!2s!4v1754270730845!5m2!1sen!2s"" width=""600"" height=""450"" style=""border:0;"" allowfullscreen="""" loading=""lazy"" referrerpolicy=""no-referrer-when-downgrade""></iframe>"
Roy Wilkins Park Tennis Courts       ,"        Roy Wilkins Recreation Center
Merrick Blvd. & 119 Ave.",Queens,Hard,Required and Enforced,4,All Year,7am til dusk,"No specific local tips available yet.Help us enhance this page! If you have insights or tips about playing at Roy Wilkins Park Tennis Courts, please email them to info@thenyctennisclub.com. Your contribution helps the entire community!",40.6860372,-73.76969412,"<iframe src=""https://www.google.com/maps/embed?pb=!1m18!1m12!1m3!1d3025.406786020715!2d-73.77200618841441!3d40.68703787127799!2m3!1f0!2f0!3f0!3m2!1i1024!2i768!4f13.1!3m3!1m2!1s0x89c261c032967275%3A0x6680a20f458ec752!2sRoy%20Wilkins%20Park%20Tennis%20Courts!5e0!3m2!1sen!2s!4v1754270911818!5m2!1sen!2s"" width=""600"" height=""450"" style=""border:0;"" allowfullscreen="""" loading=""lazy"" referrerpolicy=""no-referrer-when-downgrade""></iframe>"
Springfield Park Tennis Courts,"Springfield Park
147 Ave. & Springfield Ave.",Queens,Hard,Not Required,2,All Year,7 am til dusk,"Courts are typically first-come, first-served — communicate clearly and be respectful with fellow players to sort out wait times fairly.    ",40.65981973,-73.76241859,"<iframe src=""https://www.google.com/maps/embed?pb=!1m18!1m12!1m3!1d751.8297847724679!2d-73.7634646421823!3d40.65995923127221!2m3!1f0!2f0!3f0!3m2!1i1024!2i768!4f13.1!3m3!1m2!1s0x89c267e2a1c92047%3A0x1e84648bbcfed8fc!2sSpringfield%20Park%20Tennis%20Courts!5e0!3m2!1sen!2s!4v1754271224673!5m2!1sen!2s"" width=""600"" height=""450"" style=""border:0;"" allowfullscreen="""" loading=""lazy"" referrerpolicy=""no-referrer-when-downgrade""></iframe>"
St. Albans Park        ,"Archie Spigner Park
Merrick Blvd. & 172nd St.",Queens,Hard,?,2,All Year,7am til dusk,,,,
Haffen Park Tennis Courts      ,"Haffen Park
Hammersley, Ely, and Gunther Aves",The Bronx,Hard,Not Required,6,All Year,7 am - 10 pm (Night Lights),"Courts are typically first-come, first-served — communicate clearly and be respectful with fellow players to sort out wait times fairly.    ",40.87401991,-73.84012822,"<iframe src=""https://www.google.com/maps/embed?pb=!1m18!1m12!1m3!1d3016.9092476674477!2d-73.84274068840496!3d40.87386577125031!2m3!1f0!2f0!3f0!3m2!1i1024!2i768!4f13.1!3m3!1m2!1s0x89c28cca94613181%3A0x347a9ab729a046e0!2sHaffen%20Park%20Tennis%20Courts!5e0!3m2!1sen!2s!4v1754274108968!5m2!1sen!2s"" width=""600"" height=""450"" style=""border:0;"" allowfullscreen="""" loading=""lazy"" referrerpolicy=""no-referrer-when-downgrade""></iframe>"
Stadium Tennis Center at Mill Pond Park        ,"Center at Mill Pond Park        Mill Pond Park
Gateway Center Boulevard (Exterior Street) and East 150th Street",The Bronx,,"Required, but Rarely Checked",11,All Year,8 am- 7 pm,"Reservations from May 5th to October 15th. You can get a court without reservation by showing up, but no guarantees. 3 courts are available through reservation the other 8 are walk-on courts",40.82297474,-73.93163708,"<iframe src=""https://www.google.com/maps/embed?pb=!1m18!1m12!1m3!1d1795.6734388906425!2d-73.93286861137452!3d40.823587985786936!2m3!1f0!2f0!3f0!3m2!1i1024!2i768!4f13.1!3m3!1m2!1s0x89c2f5d43e2c05fb%3A0x46e82425fe48ff4b!2sMill%20Pond%20Park%20Tennis%20Courts!5e0!3m2!1sen!2s!4v1754334959363!5m2!1sen!2s"" width=""600"" height=""450"" style=""border:0;"" allowfullscreen="""" loading=""lazy"" referrerpolicy=""no-referrer-when-downgrade""></iframe>"
Van Cortlandt Park Tennis Courts       ,"Van Cortlandt Park
Stadium - W. 242nd St. and Broadway",The Bronx,,"Required, but Rarely Checked",6,All Year,7 am til dusk,"Courts are typically first-come, first-served — communicate clearly and be respectful with fellow players to sort out wait times fairly.    ",40.89086878,-73.89287049,"<iframe src=""https://www.google.com/maps/embed?pb=!1m18!1m12!1m3!1d288.68906402024834!2d-73.89325866120578!3d40.8908944019126!2m3!1f0!2f0!3f0!3m2!1i1024!2i768!4f13.1!3m3!1m2!1s0x89c2f3a89087d30b%3A0x921b66f7f0879d14!2sVan%20Cortlandt%20Park%20Tennis%20Courts%20%F0%9F%8E%BE!5e0!3m2!1sen!2s!4v1754335365034!5m2!1sen!2s"" width=""600"" height=""450"" style=""border:0;"" allowfullscreen="""" loading=""lazy"" referrerpolicy=""no-referrer-when-downgrade""></iframe>"
Williamsbridge Oval Tennis Courts        ,"Williamsbridge Oval
E. 208th St. and Bainbridge Ave.",The Bronx,,"Required, but Rarely Checked",8,All Year,8 am til dusk,"Courts are typically first-come, first-served — communicate clearly and be respectful with fellow players to sort out wait times fairly.    ",40.87813553,-73.87779099,"<iframe src=""https://www.google.com/maps/embed?pb=!1m18!1m12!1m3!1d3016.7194760027605!2d-73.88040882396601!3d40.878030071369174!2m3!1f0!2f0!3f0!3m2!1i1024!2i768!4f13.1!3m3!1m2!1s0x89c2f372ad9555cd%3A0xaac3a896155b8919!2sWilliamsbridge%20Oval%20Tennis%20Courts!5e0!3m2!1sen!2s!4v1754335799042!5m2!1sen!2s"" width=""600"" height=""450"" style=""border:0;"" allowfullscreen="""" loading=""lazy"" referrerpolicy=""no-referrer-when-downgrade""></iframe>"